CCSDS_OMM_VERS = 2.0
CREATION_DATE  = 
ORIGINATOR     = 

OBJECT_NAME    = STARLINK-35733
OBJECT_ID      = 2025-244U
CENTER_NAME    = EARTH
REF_FRAME      = TEME
TIME_SYSTEM    = UTC
MEAN_ELEMENT_THEORY = SGP/SGP4

EPOCH          = 2025-11-07T04:00:03.000096
MEAN_MOTION    = 15.83547591
ECCENTRICITY   = .000069
INCLINATION    = 53.1536
RA_OF_ASC_NODE = 85.8049
ARG_OF_PERICENTER = 77.9023
MEAN_ANOMALY   = 350.9454

EPHEMERIS_TYPE = 0
CLASSIFICATION_TYPE = U
NORAD_CAT_ID   = 66224
ELEMENT_SET_NO = 999
REV_AT_EPOCH   = 249
BSTAR          = -.71389E-2
MEAN_MOTION_DOT = -.1420504E-1
MEAN_MOTION_DDOT = 0

CCSDS_OMM_VERS = 2.0
CREATION_DATE  = 
ORIGINATOR     = 

OBJECT_NAME    = STARLINK-35734
OBJECT_ID      = 2025-244V
CENTER_NAME    = EARTH
REF_FRAME      = TEME
TIME_SYSTEM    = UTC
MEAN_ELEMENT_THEORY = SGP/SGP4

EPOCH          = 2025-11-07T04:00:03.000096
MEAN_MOTION    = 15.83543636
ECCENTRICITY   = .000072
INCLINATION    = 53.1535
RA_OF_ASC_NODE = 85.8094
ARG_OF_PERICENTER = 77.6373
MEAN_ANOMALY   = 349.0180

EPHEMERIS_TYPE = 0
CLASSIFICATION_TYPE = U
NORAD_CAT_ID   = 66225
ELEMENT_SET_NO = 999
REV_AT_EPOCH   = 249
BSTAR          = -.71197E-2
MEAN_MOTION_DOT = -.1416882E-1
MEAN_MOTION_DDOT = 0

CCSDS_OMM_VERS = 2.0
CREATION_DATE  = 
ORIGINATOR     = 

OBJECT_NAME    = STARLINK-34466
OBJECT_ID      = 2025-244W
CENTER_NAME    = EARTH
REF_FRAME      = TEME
TIME_SYSTEM    = UTC
MEAN_ELEMENT_THEORY = SGP/SGP4

EPOCH          = 2025-11-07T04:00:03.000096
MEAN_MOTION    = 15.83533077
ECCENTRICITY   = .0000684
INCLINATION    = 53.1536
RA_OF_ASC_NODE = 85.7993
ARG_OF_PERICENTER = 69.6547
MEAN_ANOMALY   = 1.7319

EPHEMERIS_TYPE = 0
CLASSIFICATION_TYPE = U
NORAD_CAT_ID   = 66226
ELEMENT_SET_NO = 999
REV_AT_EPOCH   = 281
BSTAR          = -.7156E-2
MEAN_MOTION_DOT = -.1422631E-1
MEAN_MOTION_DDOT = 0

CCSDS_OMM_VERS = 2.0
CREATION_DATE  = 
ORIGINATOR     = 

OBJECT_NAME    = STARLINK-34882
OBJECT_ID      = 2025-244X
CENTER_NAME    = EARTH
REF_FRAME      = TEME
TIME_SYSTEM    = UTC
MEAN_ELEMENT_THEORY = SGP/SGP4

EPOCH          = 2025-11-07T04:00:03.000096
MEAN_MOTION    = 15.83550731
ECCENTRICITY   = .0000857
INCLINATION    = 53.1535
RA_OF_ASC_NODE = 85.7947
ARG_OF_PERICENTER = 72.7721
MEAN_ANOMALY   = 0.7309

EPHEMERIS_TYPE = 0
CLASSIFICATION_TYPE = U
NORAD_CAT_ID   = 66227
ELEMENT_SET_NO = 999
REV_AT_EPOCH   = 281
BSTAR          = -.72713E-2
MEAN_MOTION_DOT = -.1444171E-1
MEAN_MOTION_DDOT = 0

CCSDS_OMM_VERS = 2.0
CREATION_DATE  = 
ORIGINATOR     = 

OBJECT_NAME    = STARLINK-35731
OBJECT_ID      = 2025-244Y
CENTER_NAME    = EARTH
REF_FRAME      = TEME
TIME_SYSTEM    = UTC
MEAN_ELEMENT_THEORY = SGP/SGP4

EPOCH          = 2025-11-07T04:00:03.000096
MEAN_MOTION    = 15.83560526
ECCENTRICITY   = .0000839
INCLINATION    = 53.1533
RA_OF_ASC_NODE = 85.7907
ARG_OF_PERICENTER = 72.3490
MEAN_ANOMALY   = 3.1649

EPHEMERIS_TYPE = 0
CLASSIFICATION_TYPE = U
NORAD_CAT_ID   = 66228
ELEMENT_SET_NO = 999
REV_AT_EPOCH   = 249
BSTAR          = -.72494E-2
MEAN_MOTION_DOT = -.1440898E-1
MEAN_MOTION_DDOT = 0

CCSDS_OMM_VERS = 2.0
CREATION_DATE  = 
ORIGINATOR     = 

OBJECT_NAME    = STARLINK-35758
OBJECT_ID      = 2025-244Z
CENTER_NAME    = EARTH
REF_FRAME      = TEME
TIME_SYSTEM    = UTC
MEAN_ELEMENT_THEORY = SGP/SGP4

EPOCH          = 2025-11-07T04:00:03.000096
MEAN_MOTION    = 15.83569845
ECCENTRICITY   = .0000829
INCLINATION    = 53.1534
RA_OF_ASC_NODE = 85.7862
ARG_OF_PERICENTER = 72.8870
MEAN_ANOMALY   = 4.9291

EPHEMERIS_TYPE = 0
CLASSIFICATION_TYPE = U
NORAD_CAT_ID   = 66229
ELEMENT_SET_NO = 999
REV_AT_EPOCH   = 249
BSTAR          = -.74708E-2
MEAN_MOTION_DOT = -.1480388E-1
MEAN_MOTION_DDOT = 0

CCSDS_OMM_VERS = 2.0
CREATION_DATE  = 
ORIGINATOR     = 

OBJECT_NAME    = STARLINK-35736
OBJECT_ID      = 2025-244AA
CENTER_NAME    = EARTH
REF_FRAME      = TEME
TIME_SYSTEM    = UTC
MEAN_ELEMENT_THEORY = SGP/SGP4

EPOCH          = 2025-11-07T04:00:03.000096
MEAN_MOTION    = 15.83559011
ECCENTRICITY   = .0000842
INCLINATION    = 53.1533
RA_OF_ASC_NODE = 85.7810
ARG_OF_PERICENTER = 72.6123
MEAN_ANOMALY   = 7.6164

EPHEMERIS_TYPE = 0
CLASSIFICATION_TYPE = U
NORAD_CAT_ID   = 66230
ELEMENT_SET_NO = 999
REV_AT_EPOCH   = 249
BSTAR          = -.73785E-2
MEAN_MOTION_DOT = -.1463523E-1
MEAN_MOTION_DDOT = 0

CCSDS_OMM_VERS = 2.0
CREATION_DATE  = 
ORIGINATOR     = 

OBJECT_NAME    = STARLINK-35735
OBJECT_ID      = 2025-244AB
CENTER_NAME    = EARTH
REF_FRAME      = TEME
TIME_SYSTEM    = UTC
MEAN_ELEMENT_THEORY = SGP/SGP4

EPOCH          = 2025-11-07T04:00:03.000096
MEAN_MOTION    = 15.83547493
ECCENTRICITY   = .0000658
INCLINATION    = 53.1536
RA_OF_ASC_NODE = 85.7757
ARG_OF_PERICENTER = 70.3788
MEAN_ANOMALY   = 12.3606

EPHEMERIS_TYPE = 0
CLASSIFICATION_TYPE = U
NORAD_CAT_ID   = 66231
ELEMENT_SET_NO = 999
REV_AT_EPOCH   = 249
BSTAR          = -.74834E-2
MEAN_MOTION_DOT = -.1481071E-1
MEAN_MOTION_DDOT = 0

CCSDS_OMM_VERS = 2.0
CREATION_DATE  = 
ORIGINATOR     = 

OBJECT_NAME    = STARLINK-35753
OBJECT_ID      = 2025-244AC
CENTER_NAME    = EARTH
REF_FRAME      = TEME
TIME_SYSTEM    = UTC
MEAN_ELEMENT_THEORY = SGP/SGP4

EPOCH          = 2025-11-07T04:00:03.000096
MEAN_MOTION    = 15.83563137
ECCENTRICITY   = .0000896
INCLINATION    = 53.1537
RA_OF_ASC_NODE = 85.7720
ARG_OF_PERICENTER = 69.9980
MEAN_ANOMALY   = 14.7153

EPHEMERIS_TYPE = 0
CLASSIFICATION_TYPE = U
NORAD_CAT_ID   = 66232
ELEMENT_SET_NO = 999
REV_AT_EPOCH   = 249
BSTAR          = -.74288E-2
MEAN_MOTION_DOT = -.1472646E-1
MEAN_MOTION_DDOT = 0

CCSDS_OMM_VERS = 2.0
CREATION_DATE  = 
ORIGINATOR     = 

OBJECT_NAME    = STARLINK-35626
OBJECT_ID      = 2025-244AD
CENTER_NAME    = EARTH
REF_FRAME      = TEME
TIME_SYSTEM    = UTC
MEAN_ELEMENT_THEORY = SGP/SGP4

EPOCH          = 2025-11-07T04:00:03.000096
MEAN_MOTION    = 15.83556587
ECCENTRICITY   = .0000754
INCLINATION    = 53.1535
RA_OF_ASC_NODE = 85.7665
ARG_OF_PERICENTER = 82.7522
MEAN_ANOMALY   = 4.4265

EPHEMERIS_TYPE = 0
CLASSIFICATION_TYPE = U
NORAD_CAT_ID   = 66233
ELEMENT_SET_NO = 999
REV_AT_EPOCH   = 265
BSTAR          = -.74937E-2
MEAN_MOTION_DOT = -.1483511E-1
MEAN_MOTION_DDOT = 0

CCSDS_OMM_VERS = 2.0
CREATION_DATE  = 
ORIGINATOR     = 

OBJECT_NAME    = STARLINK-35537
OBJECT_ID      = 2025-245A
CENTER_NAME    = EARTH
REF_FRAME      = TEME
TIME_SYSTEM    = UTC
MEAN_ELEMENT_THEORY = SGP/SGP4

EPOCH          = 2025-11-06T14:00:01.000224
MEAN_MOTION    = 15.91893018
ECCENTRICITY   = .0000579
INCLINATION    = 53.1535
RA_OF_ASC_NODE = 143.6990
ARG_OF_PERICENTER = 79.2479
MEAN_ANOMALY   = 39.6840

EPHEMERIS_TYPE = 0
CLASSIFICATION_TYPE = U
NORAD_CAT_ID   = 66234
ELEMENT_SET_NO = 999
REV_AT_EPOCH   = 229
BSTAR          = 0
MEAN_MOTION_DOT = -.3503E-4
MEAN_MOTION_DDOT = .11075E-4

CCSDS_OMM_VERS = 2.0
CREATION_DATE  = 
ORIGINATOR     = 

OBJECT_NAME    = STARLINK-35541
OBJECT_ID      = 2025-245B
CENTER_NAME    = EARTH
REF_FRAME      = TEME
TIME_SYSTEM    = UTC
MEAN_ELEMENT_THEORY = SGP/SGP4

EPOCH          = 2025-11-06T14:00:01.000224
MEAN_MOTION    = 15.91893018
ECCENTRICITY   = .0000579
INCLINATION    = 53.1535
RA_OF_ASC_NODE = 143.6990
ARG_OF_PERICENTER = 79.2479
MEAN_ANOMALY   = 39.6840

EPHEMERIS_TYPE = 0
CLASSIFICATION_TYPE = U
NORAD_CAT_ID   = 66235
ELEMENT_SET_NO = 999
REV_AT_EPOCH   = 229
BSTAR          = 0
MEAN_MOTION_DOT = -.3503E-4
MEAN_MOTION_DDOT = .11075E-4

