STARLINK-35733          
1 66224U 25244U   25311.16670139 -.01420504  00000+0 -71389-2 0  9999
2 66224  53.1536  85.8049 0000690  77.9023 350.9454 15.83547591  2495
STARLINK-35734          
1 66225U 25244V   25311.16670139 -.01416882  00000+0 -71197-2 0  9991
2 66225  53.1535  85.8094 0000720  77.6373 349.0180 15.83543636  2495
STARLINK-34466          
1 66226U 25244W   25311.16670139 -.01422631  00000+0 -71560-2 0  9995
2 66226  53.1536  85.7993 0000684  69.6547   1.7319 15.83533077  2817
STARLINK-34882          
1 66227U 25244X   25311.16670139 -.01444171  00000+0 -72713-2 0  9990
2 66227  53.1535  85.7947 0000857  72.7721   0.7309 15.83550731  2811
STARLINK-35731          
1 66228U 25244Y   25311.16670139 -.01440898  00000+0 -72494-2 0  9999
2 66228  53.1533  85.7907 0000839  72.3490   3.1649 15.83560526  2496
STARLINK-35758          
1 66229U 25244Z   25311.16670139 -.01480388  00000+0 -74708-2 0  9998
2 66229  53.1534  85.7862 0000829  72.8870   4.9291 15.83569845  2499
STARLINK-35736          
1 66230U 25244AA  25311.16670139 -.01463523  00000+0 -73785-2 0  9996
2 66230  53.1533  85.7810 0000842  72.6123   7.6164 15.83559011  2490
STARLINK-35735          
1 66231U 25244AB  25311.16670139 -.01481071  00000+0 -74834-2 0  9991
2 66231  53.1536  85.7757 0000658  70.3788  12.3606 15.83547493  2496
STARLINK-35753          
1 66232U 25244AC  25311.16670139 -.01472646  00000+0 -74288-2 0  9993
2 66232  53.1537  85.7720 0000896  69.9980  14.7153 15.83563137  2496
STARLINK-35626          
1 66233U 25244AD  25311.16670139 -.01483511  00000+0 -74937-2 0  9998
2 66233  53.1535  85.7665 0000754  82.7522   4.4265 15.83556587  2650
STARLINK-35537          
1 66234U 25245A   25310.58334491 -.00003503  11075-4  00000+0 0  9996
2 66234  53.1535 143.6990 0000579  79.2479  39.6840 15.91893018  2294
STARLINK-35541          
1 66235U 25245B   25310.58334491 -.00003503  11075-4  00000+0 0  9997
2 66235  53.1535 143.6990 0000579  79.2479  39.6840 15.91893018  2295
